#dP2022  3  1 18  0  0.00000000      96 __u+U ITR00 EXT  IAC
## 2199 237600.00000000   900.00000000 59639 0.7500000000000
+  117   C06C07C08C09C10C11C12C13C14C16C19C20C21C22C23C24C25
+        C26C27C28C29C30C32C33C34C35C36C37C38C39C40C41C42C43
+        C44C45C46E01E02E03E04E05E07E08E09E10E11E12E13E14E15
+        E18E19E21E24E25E26E27E30E31E33E34E36G01G02G03G04G05
+        G06G07G08G09G10G11G12G13G14G15G16G17G18G19G20G21G22
+        G23G24G25G26G27G28G29G30G31G32J02J03R01R02R03R04R05
+        R07R08R09R11R12R13R14R15R17R18R19R20R21R22R24  0  0
++         9 10  9  9  8  9  8 10  9  9 10  8  8  9  8  8  8
++         8  8  8  9  9  9  7  9  9  9  8  9  7 10  8  8  8
++         9  9  9  8  8  7  8  7  8  7  7  8  8  8  7  8  8
++         9  8  8  7  7  7  7  8  7  8  8  8 12  8  9  8  8
++         7  7  8  7  8  7  8  8  8  8  7  8  7  8  7  7 10
++         8  7  7  7  8  8  9  8  8  8 10  7  7  9  9  7  9
++         8  9  7  8  7 10  9  8  8  9  9  8  9  9  8  0  0
%c M  cc GPS ccc cccc cccc cccc cccc ccccc ccccc ccccc ccccc
%c cc cc ccc ccc cccc cccc cccc cccc ccccc ccccc ccccc ccccc
%f  0.0000000  0.000000000  0.00000000000  0.000000000000000
%f  0.0000000  0.000000000  0.00000000000  0.000000000000000
%i    0    0    0    0      0      0      0      0         0
%i    0    0    0    0      0      0      0      0         0
/* IAC                                ULTRA-RAPID PREDICTION
/* S/V CLOCKS ARE ALIGNED TO GNSS TIME                      
/* G:C1WC2W R:C1PC2P E:C1XC5X C:C2IC6I J:C1CC2S             
/* PCV:IGS14_2196 OL/AL:FES2004  NONE     YN ORB:CoN CLK:CoN
*  2022 03 02  1 30  0.00000000
PC06 -14720.580159  23964.651489  31351.146378    138.652049
PC07 -13347.590191  40070.062557   -266.359093   -115.668134
PC08    505.515605  29451.479205 -30085.216848    168.833556
PC09  -2652.218801  24660.191646  34401.505796   -567.183836
PC10  -7833.597586  41102.459464  -6681.131052    139.462591
PC11  24856.897300   5286.969408 -11435.809436   -177.421929
PC12   9230.151947  13847.946681 -22361.572809    681.739430
PC13   7265.331973  33588.659140 -24126.253325   -101.993961
PC14  14503.414008   6471.634504  22971.432744    452.261605
PC16 -15744.010004  23493.869997  31342.682375     93.467138
PC19 -17680.137991   4540.729429 -21082.596592    890.947234
PC20  -9984.596936 -14493.351320 -21631.706871   -835.063871
PC21  -4247.065428  26018.841307   9201.945340   -930.843900
PC22 -15497.312344  21685.346587  -8302.941799   -959.031826
PC23  11104.556341 -12202.561693 -22510.096761   -950.545900
PC24  17659.789276  21499.745536  -1954.387318   -944.911395
PC25  20569.201767   5277.219034 -18104.075743   -772.046615
PC26   6067.722479  23603.124821  13546.862486    772.071232
PC27   1234.470022 -15983.271436  22824.897624    685.321102
PC28  20328.014597 -12293.078780  14647.023415     38.584548
PC29 -27701.489413   2233.248858   2479.907352    521.948218
PC30 -18516.318927 -10125.949855  18239.521401    494.355003
PC32   4101.987971 -26045.758424  -9110.257459   -972.268713
PC33  17670.594576  -4494.156215  21131.258932   -961.398965
PC34  19374.401394   9670.146094 -17628.601817   -457.760116
PC35 -20482.212887  12723.606812 -14020.611854    162.807987
PC36 -20565.462197  -6268.992143  17810.887797   -924.362137
PC37  -4595.796450 -23471.812581 -14389.506949   -950.597806
PC38  -6406.119430  26446.522908 -32123.216535    214.987538
PC39 -22276.519900  23038.942937  27321.709292     34.839903
PC40 -19155.126484  37598.234350   1974.787915    248.709415
PC41  15642.314012 -21405.510595   8771.034178   -946.766349
PC42   9436.708079  15437.138528  21297.669649   -934.375247
PC43  27696.911689  -1661.093088  -3126.636824   -938.653473
PC44   -828.926295  16174.337383 -22732.134222    581.197190
PC45 -10834.250611  12323.986407  22563.912253    693.718738
PC46 -18314.188179 -20827.155290   3285.404749   -195.306522
PE01  15429.006504  16084.756647 -19475.829998   -588.726187
PE02 -15464.565540 -15968.970060  19549.402865    283.519246
PE03 -19201.979330  -4783.215565 -22016.631849   -533.001691
PE04  25615.868916 -11981.248902   8756.346453   -975.493265
PE05  -1362.262888 -19073.677622 -22591.949016   -204.328633
PE07 -17005.376250  22063.560963  10025.884926   -644.121007
PE08 -25515.794760  12428.479408  -8418.295741   -488.090277
PE09  16784.382412 -22109.340690 -10259.779839   5342.979733
PE10  18847.748993  -7490.604952  21557.725204   -498.127405
PE11   8839.674086 -13745.117662  24677.149992   4334.020821
PE12  25449.910036   -347.214976  15134.650526   4734.444732
PE13  -9459.174426  13367.702176 -24648.732809    426.945550
PE14   1696.495044  21429.689031 -24066.619459  -1763.418504
PE15 -25483.927962    265.681142 -15036.331547    760.298019
PE18  -9297.827773 -12464.604613  18425.859781  -1733.511961
PE19  17368.005979   6833.018075  22982.880976   -615.979369
PE21   6769.210332  28478.990005  -4360.844676   -720.094937
PE24   7262.845874 -24430.908038 -15094.950511  -1418.028577
PE25  -6604.148611 -28568.072347   4102.923348   -565.346381
PE26  12910.553779  18661.898832 -19000.688636   -863.720658
PE27  -6335.097340  25226.142583  14112.035122   -243.666316
PE30 -15934.207692   5867.968268  24229.013851   -314.662121
PE31  15591.285741  -7178.281288 -24114.867436   -492.918641
PE33  26420.507636  12927.068285  -3380.451192   -458.963868
PE34 -26512.088529 -12773.709277   3184.963858   -504.516627
PE36 -11987.859964 -18527.782774  19727.969160   -339.387672
PG01  22462.613714  14476.163642  -1545.124663    419.103346
PG02  -6671.807425 -17839.876580  19118.020579   -651.691249
PG03  12729.647340  13904.467787  18652.116064   -144.431137
PG04  18176.227119   5097.188128  18722.783013   -186.454100
PG05  -5821.420651 -24962.954058  -6812.152489    -73.191537
PG06   9938.926363 -11105.708707  22059.281994    217.538834
PG07  23235.137490   3181.136752 -12543.019422    313.627116
PG08   9025.472001  12214.286927 -21828.775272    -58.171448
PG09  23614.813717  -5217.328821  10947.818720   -351.890332
PG10 -11669.297218  16217.264837 -17206.522036   -334.599588
PG11  -4879.684025 -18507.627885  18418.636109    -73.670345
PG12 -10323.106989 -17585.915798  16821.362301   -178.557000
PG13    373.027765 -15991.065765 -21328.567622    269.902964
PG14  12991.212711 -15202.951510 -17449.844068    -89.537192
PG15 -11294.538068 -11543.966650 -21510.415915    -80.006538
PG16    177.483873  26088.492364  -3634.024348   -475.685668
PG17  22145.115197 -14219.333006   4210.614820    581.728986
PG18 -22797.586896  -3041.023051 -13375.128826    229.295736
PG19  18081.640280 -15921.633222  10707.909075    125.510282
PG20  -1488.174408 -26406.862205   3620.951076    516.481217
PG21  18181.947407  16529.989576 -10190.349511    158.813831
PG22 -14739.536417  17538.290918  13679.987936    221.121851
PG23 -14780.073192   4415.638738 -21622.135544     -3.187774
PG24 -21307.160678 -15146.407600  -6097.964486    271.424142
PG25 -15013.109859  -4028.871491  21279.975167    292.533475
PG26  -5519.663694  24063.673025   9287.293950    187.394467
PG27  -3036.913542  17407.876199 -19898.953579    139.116894
PG28   9403.116374 -22322.268063 -10636.169905    389.627700
PG29 -23200.414691   1703.057173  12824.940486   -486.325540
PG30  18504.597653  -4758.775471 -18473.455566   -516.351493
PG31  -8232.614548  12876.682962  21597.890804   -167.030975
PG32 -19091.598633  16975.743130   7024.743537    -76.828880
PJ02 -26780.458400  24526.133595  26383.151358     -1.682645
PJ03 -33045.279895  17016.257330 -15289.564116     -0.768377
PR01  15116.359004 -20145.885491   4006.420551      7.153410
PR02   5003.271148 -19965.840181 -15065.539575    511.220312
PR03  -7861.888976  -7803.141361 -22933.481946     52.363085
PR04 -15936.224481   8619.142558 -17920.238121    129.992592
PR05 -15356.115358  20132.428567  -2967.302447     88.620549
PR07   8415.682524   7072.508778  23057.268969     32.191033
PR08  16047.573144  -8684.905096  17896.087233    -63.809381
PR09   7558.608880  23104.021921   7857.960013     42.134861
PR11  13478.191213   4238.849464 -21234.046033     44.561764
PR12   4224.873658 -13946.064152 -20923.641891     17.317369
PR13  -6859.475408 -22861.661171  -9027.726677    -18.917091
PR14 -14560.141781 -18628.508798   9564.366603     74.931592
PR15 -13289.772553  -3563.105274  21492.106837     97.841144
PR17 -20095.773184  -7674.999072  13743.864571    506.022652
PR18 -25334.493670   -835.894467  -2540.642123    108.945912
PR19 -18351.333301   5576.163935 -16811.693577   -180.015246
PR20   2303.406054  10538.984000 -23108.012240    -65.895672
PR21  20986.492175   7244.253375 -12541.437087   -281.979137
PR22  25319.454597    584.223116   3463.943808   -167.905438
PR24  -3228.830506 -10977.596157  22816.945087     82.463790
EOF
